IRIDIUM 171             
1 43929U 19002H   25084.61951943  .00000166  00000+0  52357-4 0  9994
2 43929  86.4059 181.2964 0001807 105.1435 254.9961 14.34218336324669
IRIDIUM 170             
1 43930U 19002J   25084.57832275  .00003476  00000+0  54703-3 0  9990
2 43930  86.6170 181.0839 0001979  95.0658 265.0785 14.72262288333259
IRIDIUM 167             
1 43931U 19002K   25083.98526032  .00000447  00000+0  15248-3 0  9992
2 43931  86.4048 181.3228 0001733  94.1025 266.0369 14.34219176324573
IRIDIUM 181             
1 56726U 23068S   25084.68388571  .00001255  00000+0  36715-3 0  9997
2 56726  86.4495 244.0980 0001166  96.4118 263.7215 14.43282421 97748
IRIDIUM 177             
1 56727U 23068T   25084.71834543  .00004718  00000+0  61747-3 0  9997
2 56727  86.2039 181.7175 0001703 107.3792 252.7615 14.80218640100022
IRIDIUM 174             
1 56728U 23068U   25084.71286843  .00004632  00000+0  60570-3 0  9990
2 56728  86.2043 181.8456 0002613 108.9214 251.2290 14.80246353100023
IRIDIUM 178             
1 56729U 23068V   25084.77500716  .00004680  00000+0  61271-3 0  9997
2 56729  86.6581 212.6138 0002069 104.0875 256.0577 14.80204019100035
IRIDIUM 179             
1 56730U 23068W   25084.63437409  .00004233  00000+0  55386-3 0  9996
2 56730  86.6889 220.3034 0002161  80.3438 279.8028 14.80208512100017
